NORAD_CAT_ID,OBJECT_NAME,OBJECT_TYPE,EPOCH,MEAN_MOTION,ECCENTRICITY,INCLINATION,RA_OF_ASC_NODE,ARG_OF_PERICENTER,MEAN_ANOMALY,BSTAR,MEAN_MOTION_DOT,MEAN_MOTION_DDOT,TLE_LINE0,TLE_LINE1,TLE_LINE2,SEMIMAJOR_AXIS,PERIOD,APOGEE,PERIGEE,DECAYED
52376.0,STARLINK-3767,PAYLOAD,2024-03-14 08:24:02,15.088344,0.0001388,53.2104,205.2942,85.7125,274.4026,3.5611e-06,-2.31e-06,0.0,0 STARLINK-3767,1 52376U 22045AX  24074.35002503 -.00000231  00000-0  35611-5 0  9999,2 52376  53.2104 205.2942 0001388  85.7125 274.4026 15.08834400106423,6917.898,95.438,540.723,538.802,0.0
52376.0,STARLINK-3767,PAYLOAD,2024-03-15 08:14:49,15.0883636,0.0001202,53.2129,200.8351,83.8881,276.2248,5.7785e-05,6.32e-06,0.0,0 STARLINK-3767,1 52376U 22045AX  24075.34362782  .00000632  00000-0  57785-4 0  9996,2 52376  53.2129 200.8351 0001202  83.8881 276.2248 15.08836360106577,6917.892,95.438,540.588,538.925,0.0
52376.0,STARLINK-3767,PAYLOAD,2024-03-16 12:51:45,15.08839455,0.0001433,53.2173,195.4864,92.8085,267.3071,0.00011264,1.505e-05,0.0,0 STARLINK-3767,1 52376U 22045AX  24076.53594723  .00001505  00000-0  11264-3 0  9991,2 52376  53.2173 195.4864 0001433  92.8085 267.3071 15.08839455106759,6917.882,95.438,540.738,538.756,0.0
52376.0,STARLINK-3767,PAYLOAD,2024-03-16 14:27:08,15.0884303,0.0001115,53.2174,195.1878,81.4913,278.6206,0.00013792,1.908e-05,0.0,0 STARLINK-3767,1 52376U 22045AX  24076.60218492  .00001908  00000-0  13792-3 0  9990,2 52376  53.2174 195.1878 0001115  81.4913 278.6206 15.08843030106763,6917.871,95.437,540.507,538.965,0.0
52376.0,STARLINK-3767,PAYLOAD,2024-03-17 14:17:55,15.08843363,0.0001397,53.2177,190.729,88.43,271.6852,0.00010713,1.418e-05,0.0,0 STARLINK-3767,1 52376U 22045AX  24077.59578519  .00001418  00000-0  10713-3 0  9994,2 52376  53.2177 190.7290 0001397  88.4300 271.6852 15.08843363106910,6917.87,95.437,540.702,538.769,0.0
52376.0,STARLINK-3767,PAYLOAD,2024-03-18 12:33:23,15.08792667,0.0001334,53.2176,186.5666,110.8514,249.2621,-0.00035644,-5.949e-05,0.0,0 STARLINK-3767,1 52376U 22045AX  24078.52319098 -.00005949  00000-0 -35644-3 0  9998,2 52376  53.2176 186.5666 0001334 110.8514 249.2621 15.08792667107058,6918.025,95.441,540.813,538.967,0.0
52376.0,STARLINK-3767,PAYLOAD,2024-03-19 12:24:07,15.08858681,0.0001551,53.2169,182.1021,110.0953,250.0206,0.000231,3.392e-05,0.0,0 STARLINK-3767,1 52376U 22045AX  24079.51674905  .00003392  00000-0  23100-3 0  9991,2 52376  53.2169 182.1021 0001551 110.0953 250.0206 15.08858681107202,6917.823,95.436,540.761,538.615,0.0
52376.0,STARLINK-3767,PAYLOAD,2024-03-19 20:21:02,15.08864199,0.0001274,53.216,180.6126,86.9372,273.1766,0.00025428,3.764e-05,0.0,0 STARLINK-3767,1 52376U 22045AX  24079.84794299  .00003764  00000-0  25428-3 0  9994,2 52376  53.2160 180.6126 0001274  86.9372 273.1766 15.08864199107253,6917.806,95.436,540.553,538.79,0.0
52376.0,STARLINK-3767,PAYLOAD,2024-03-20 10:39:31,15.08824952,0.0001685,53.2162,177.9359,121.0352,239.0805,0.00060959,9.423e-05,0.0,0 STARLINK-3767,1 52376U 22045AX  24080.44411871  .00009423  00000-0  60959-3 0  9990,2 52376  53.2162 177.9359 0001685 121.0352 239.0805 15.08824952107345,6917.926,95.439,540.957,538.626,0.0
52376.0,STARLINK-3767,PAYLOAD,2024-03-20 13:50:18,15.08824636,0.0001223,53.216,177.3432,86.4805,273.6327,0.00061109,9.447e-05,0.0,0 STARLINK-3767,1 52376U 22045AX  24080.57660269  .00009447  00000-0  61109-3 0  9995,2 52376  53.2160 177.3432 0001223  86.4805 273.6327 15.08824636107368,6917.927,95.439,540.638,538.946,0.0
52376.0,STARLINK-3767,PAYLOAD,2024-03-21 12:05:41,15.08858681,0.0001556,53.2166,173.18,89.8913,270.2257,2.2802e-05,7.5e-07,0.0,0 STARLINK-3767,1 52376U 22045AX  24081.50395381  .00000075  00000-0  22802-4 0  9995,2 52376  53.2166 173.1800 0001556  89.8913 270.2257 15.08858681107501,6917.823,95.436,540.765,538.612,0.0
52376.0,STARLINK-3767,PAYLOAD,2024-03-21 13:41:03,15.08869164,0.0001284,53.2162,172.8828,81.1694,278.9443,0.00010985,1.462e-05,0.0,0 STARLINK-3767,1 52376U 22045AX  24081.57018381  .00001462  00000-0  10985-3 0  9993,2 52376  53.2162 172.8828 0001284  81.1694 278.9443 15.08869164107513,6917.791,95.436,540.544,538.768,0.0
52376.0,STARLINK-3767,PAYLOAD,2024-03-22 05:34:56,15.08846381,9.08e-05,53.217,169.9111,75.5545,284.5548,-1.5447e-06,-3.12e-06,0.0,0 STARLINK-3767,1 52376U 22045AX  24082.23259270 -.00000312  00000-0 -15447-5 0  9996,2 52376  53.2170 169.9111 0000908  75.5545 284.5548 15.08846381107614,6917.861,95.437,540.354,539.098,0.0
52376.0,STARLINK-3767,PAYLOAD,2024-03-22 11:56:27,15.0886174,0.000198,53.217,168.7223,88.5935,271.5284,0.00010116,1.323e-05,0.0,0 STARLINK-3767,1 52376U 22045AX  24082.49753852  .00001323  00000-0  10116-3 0  9996,2 52376  53.2170 168.7223 0001980  88.5935 271.5284 15.08861740107656,6917.814,95.436,541.049,538.309,0.0
52376.0,STARLINK-3767,PAYLOAD,2024-03-22 13:31:50,15.08859193,0.0001898,53.2153,168.4273,59.8228,300.2952,0.00015732,2.218e-05,0.0,0 STARLINK-3767,1 52376U 22045AX  24082.56377947  .00002218  00000-0  15732-3 0  9994,2 52376  53.2153 168.4273 0001898  59.8228 300.2952 15.08859193107665,6917.822,95.436,541.0,538.374,0.0
52376.0,STARLINK-3767,PAYLOAD,2024-03-22 15:07:12,15.08872895,0.0001371,53.2163,168.1247,94.01,266.1049,0.00019547,2.827e-05,0.0,0 STARLINK-3767,1 52376U 22045AX  24082.63000628  .00002827  00000-0  19547-3 0  9995,2 52376  53.2163 168.1247 0001371  94.0100 266.1049 15.08872895107672,6917.78,95.435,540.593,538.696,0.0
52376.0,STARLINK-3767,PAYLOAD,2024-03-23 05:25:44,15.08827101,0.000178,53.2174,165.449,89.0893,271.0303,-0.00013813,-2.485e-05,0.0,0 STARLINK-3767,1 52376U 22045AX  24083.22620634 -.00002485  00000-0 -13813-3 0  9998,2 52376  53.2174 165.4490 0001780  89.0893 271.0303 15.08827101107769,6917.92,95.438,541.016,538.553,0.0
52376.0,STARLINK-3767,PAYLOAD,2024-03-23 11:47:16,15.08836066,0.0001533,53.2169,164.2604,95.5995,264.5172,-0.00021823,-3.759e-05,0.0,0 STARLINK-3767,1 52376U 22045AX  24083.49116272 -.00003759  00000-0 -21823-3 0  9990,2 52376  53.2169 164.2604 0001533  95.5995 264.5172 15.08836066107804,6917.892,95.438,540.818,538.697,0.0
52376.0,STARLINK-3767,PAYLOAD,2024-03-24 05:16:29,15.08847417,0.0001719,53.2171,160.9856,125.1898,234.9255,-1.8249e-05,-5.79e-06,0.0,0 STARLINK-3767,1 52376U 22045AX  24084.21978952 -.00000579  00000-0 -18249-4 0  9998,2 52376  53.2171 160.9856 0001719 125.1898 234.9255 15.08847417107914,6917.858,95.437,540.912,538.534,0.0
52376.0,STARLINK-3767,PAYLOAD,2024-03-24 11:38:01,15.08866596,0.0001537,53.2155,159.7979,81.3923,278.7243,0.00031471,4.728e-05,0.0,0 STARLINK-3767,1 52376U 22045AX  24084.48473972  .00004728  00000-0  31471-3 0  9998,2 52376  53.2155 159.7979 0001537  81.3923 278.7243 15.08866596107954,6917.799,95.436,540.727,538.601,0.0
52376.0,STARLINK-3767,PAYLOAD,2024-03-25 11:28:49,15.08850349,0.0001377,53.2151,155.3349,72.2626,287.8516,0.00035635,5.389e-05,0.0,0 STARLINK-3767,1 52376U 22045AX  24085.47835457  .00005389  00000-0  35635-3 0  9998,2 52376  53.2151 155.3349 0001377  72.2626 287.8516 15.08850349108105,6917.849,95.437,540.666,538.761,0.0
52376.0,STARLINK-3767,PAYLOAD,2024-03-25 21:01:09,15.08835484,0.0001301,53.2146,153.555,70.6919,289.4214,3.4944e-05,2.68e-06,0.0,0 STARLINK-3767,1 52376U 22045AX  24085.87580172  .00000268  00000-0  34944-4 0  9997,2 52376  53.2146 153.5550 0001301  70.6919 289.4214 15.08835484108169,6917.894,95.438,540.659,538.859,0.0
52376.0,STARLINK-3767,PAYLOAD,2024-03-26 11:19:38,15.08821732,0.0001718,53.2167,150.8833,95.6119,264.5069,-0.00020709,-3.581e-05,0.0,0 STARLINK-3767,1 52376U 22045AX  24086.47197337 -.00003581  00000-0 -20709-3 0  9997,2 52376  53.2167 150.8833 0001718  95.6119 264.5069 15.08821732108250,6917.936,95.439,540.99,538.613,0.0
52376.0,STARLINK-3767,PAYLOAD,2024-03-26 20:51:57,15.0882864,0.0001501,53.2149,149.0937,82.2777,277.8385,0.00011406,1.527e-05,0.0,0 STARLINK-3767,1 52376U 22045AX  24086.86941255  .00001527  00000-0  11406-3 0  9996,2 52376  53.2149 149.0937 0001501  82.2777 277.8385 15.08828640108317,6917.915,95.438,540.818,538.742,0.0
52376.0,STARLINK-3767,PAYLOAD,2024-03-27 11:10:24,15.08853562,0.0001515,53.2153,146.4208,94.2591,265.8574,0.00036283,5.493e-05,0.0,0 STARLINK-3767,1 52376U 22045AX  24087.46556402  .00005493  00000-0  36283-3 0  9995,2 52376  53.2153 146.4208 0001515  94.2591 265.8574 15.08853562108404,6917.839,95.437,540.752,538.656,0.0
52376.0,STARLINK-3767,PAYLOAD,2024-03-27 20:42:43,15.08854185,0.0001319,53.214,144.6346,79.5309,280.5831,0.00044678,6.832e-05,0.0,0 STARLINK-3767,1 52376U 22045AX  24087.86300371  .00006832  00000-0  44678-3 0  9996,2 52376  53.2140 144.6346 0001319  79.5309 280.5831 15.08854185108466,6917.837,95.437,540.614,538.79,0.0
52376.0,STARLINK-3767,PAYLOAD,2024-03-28 12:36:35,15.08835923,0.0001799,53.218,141.658,73.2488,286.8702,0.00027379,4.072e-05,0.0,0 STARLINK-3767,1 52376U 22045AX  24088.52541133  .00004072  00000-0  27379-3 0  9996,2 52376  53.2180 141.6580 0001799  73.2488 286.8702 15.08835923108564,6917.893,95.438,541.002,538.513,0.0
52376.0,STARLINK-3767,PAYLOAD,2024-03-28 20:33:30,15.08843806,0.0001304,53.2154,140.1711,84.9944,275.1197,0.00013892,1.924e-05,0.0,0 STARLINK-3767,1 52376U 22045AX  24088.85660714  .00001924  00000-0  13892-3 0  9997,2 52376  53.2154 140.1711 0001304  84.9944 275.1197 15.08843806108617,6917.869,95.437,540.636,538.832,0.0
52376.0,STARLINK-3767,PAYLOAD,2024-03-29 12:27:21,15.08859068,0.0001415,53.2155,137.1989,85.7847,274.3307,-3.2992e-05,-8.13e-06,0.0,0 STARLINK-3767,1 52376U 22045AX  24089.51899745 -.00000813  00000-0 -32992-4 0  9990,2 52376  53.2155 137.1989 0001415  85.7847 274.3307 15.08859068108717,6917.822,95.436,540.666,538.708,0.0
52376.0,STARLINK-3767,PAYLOAD,2024-03-29 20:24:17,15.08853461,0.0001386,53.2155,135.7102,83.1465,276.9685,-0.00014907,-2.661e-05,0.0,0 STARLINK-3767,1 52376U 22045AX  24089.85020005 -.00002661  00000-0 -14907-3 0  9990,2 52376  53.2155 135.7102 0001386  83.1465 276.9685 15.08853461108766,6917.839,95.437,540.663,538.745,0.0
